{"type": "FeatureCollection", "features": [ {"type": "Feature", "properties": {"norad_id": 40664, "name": "SKY MEXICO-1", "group": "intelsat", "lat": -0.03661637309556072, "lon": -64.41907872848064, "alt_km": 35776.305389250236, "timestamp": "2025-12-21T18:54:58.161194+00:00", "meta": {"OBJECT_NAME": "SKY MEXICO-1", "OBJECT_ID": "2015-026B", "EPOCH": "2025-12-21T13:01:36.890112", "MEAN_MOTION": 1.00271501, "ECCENTRICITY": 0.00023614, "INCLINATION": 0.015, "RA_OF_ASC_NODE": 354.63, "ARG_OF_PERICENTER": 292.4188, "MEAN_ANOMALY": 279.956, "EPHEMERIS_TYPE": 0, "CLASSIFICATION_TYPE": "U", "NORAD_CAT_ID": 40664, "ELEMENT_SET_NO": 999, "REV_AT_EPOCH": 3867, "BSTAR": 0, "MEAN_MOTION_DOT": -2.12e-06, "MEAN_MOTION_DDOT": 0}, "tle": {"line1": "1 40664U 15026B   25355.54278808 -.00000212  00000+0  00000+0 0  9990", "line2": "2 40664   0.0150 354.6300 0002361 292.4188 279.9560  1.00271501 38674"}}, "geometry": {"type": "Point", "coordinates": [-64.41907872848064, -0.03661637309556072]}}, {"type": "Feature", "properties": {"norad_id": 40874, "name": "INTELSAT 34 (IS-34)", "group": "intelsat", "lat": -0.01177220258777047, "lon": -41.16253306709359, "alt_km": 35788.79814721205, "timestamp": "2025-12-21T18:54:58.161205+00:00", "meta": {"OBJECT_NAME": "INTELSAT 34 (IS-34)", "OBJECT_ID": "2015-039A", "EPOCH": "2025-12-21T04:31:38.456256", "MEAN_MOTION": 1.00270737, "ECCENTRICITY": 5.67e-05, "INCLINATION": 0.0114, "RA_OF_ASC_NODE": 322.9713, "ARG_OF_PERICENTER": 185.716, "MEAN_ANOMALY": 313.7366, "EPHEMERIS_TYPE": 0, "CLASSIFICATION_TYPE": "U", "NORAD_CAT_ID": 40874, "ELEMENT_SET_NO": 999, "REV_AT_EPOCH": 3784, "BSTAR": 0, "MEAN_MOTION_DOT": -2.62e-06, "MEAN_MOTION_DDOT": 0}, "tle": {"line1": "1 40874U 15039A   25355.18863954 -.00000262  00000+0  00000+0 0  9994", "line2": "2 40874   0.0114 322.9713 0000567 185.7160 313.7366  1.00270737 37842"}}, "geometry": {"type": "Point", "coordinates": [-41.16253306709359, -0.01177220258777047]}}, {"type": "Feature", "properties": {"norad_id": 41581, "name": "INTELSAT 31 (IS-31)", "group": "intelsat", "lat": -0.015085366755013832, "lon": -80.6893404162944, "alt_km": 35784.10358002107, "timestamp": "2025-12-21T18:54:58.161217+00:00", "meta": {"OBJECT_NAME": "INTELSAT 31 (IS-31)", "OBJECT_ID": "2016-035A", "EPOCH": "2025-12-20T14:29:23.871264", "MEAN_MOTION": 1.00271704, "ECCENTRICITY": 0.00019976, "INCLINATION": 0.0288, "RA_OF_ASC_NODE": 267.9464, "ARG_OF_PERICENTER": 295.2319, "MEAN_ANOMALY": 8.5584, "EPHEMERIS_TYPE": 0, "CLASSIFICATION_TYPE": "U", "NORAD_CAT_ID": 41581, "ELEMENT_SET_NO": 999, "REV_AT_EPOCH": 3489, "BSTAR": 0, "MEAN_MOTION_DOT": -1.27e-06, "MEAN_MOTION_DDOT": 0}, "tle": {"line1": "1 41581U 16035A   25354.60374851 -.00000127  00000+0  00000+0 0  9996", "line2": "2 41581   0.0288 267.9464 0001997 295.2319   8.5584  1.00271704 34890"}}, "geometry": {"type": "Point", "coordinates": [-80.6893404162944, -0.015085366755013832]}}, {"type": "Feature", "properties": {"norad_id": 41747, "name": "INTELSAT 36 (IS-36)", "group": "intelsat", "lat": 0.03692306644827932, "lon": 82.84740026518442, "alt_km": 35787.79545904645, "timestamp": "2025-12-21T18:54:58.161228+00:00", "meta": {"OBJECT_NAME": "INTELSAT 36 (IS-36)", "OBJECT_ID": "2016-053A", "EPOCH": "2025-12-21T04:57:48.972384", "MEAN_MOTION": 1.00273317, "ECCENTRICITY": 0.0001215, "INCLINATION": 0.0105, "RA_OF_ASC_NODE": 358.7052, "ARG_OF_PERICENTER": 329.3234, "MEAN_ANOMALY": 264.9497, "EPHEMERIS_TYPE": 0, "CLASSIFICATION_TYPE": "U", "NORAD_CAT_ID": 41747, "ELEMENT_SET_NO": 999, "REV_AT_EPOCH": 3416, "BSTAR": 0, "MEAN_MOTION_DOT": -2e-08, "MEAN_MOTION_DDOT": 0}, "tle": {"line1": "1 41747U 16053A   25355.20681681 -.00000002  00000+0  00000+0 0  9991", "line2": "2 41747   0.0105 358.7052 0001215 329.3234 264.9497  1.00273317 34165"}}, "geometry": {"type": "Point", "coordinates": [82.84740026518442, 0.03692306644827932]}}, {"type": "Feature", "properties": {"norad_id": 41945, "name": "INTELSAT 32E (IS-32E)", "group": "intelsat", "lat": -0.0369641548038059, "lon": -28.85765355681932, "alt_km": 35785.455856049404, "timestamp": "2025-12-21T18:54:58.161240+00:00", "meta": {"OBJECT_NAME": "INTELSAT 32E (IS-32E)", "OBJECT_ID": "2017-007B", "EPOCH": "2025-12-21T08:28:38.563104", "MEAN_MOTION": 1.00267685, "ECCENTRICITY": 7.959e-05, "INCLINATION": 0.0278, "RA_OF_ASC_NODE": 70.3074, "ARG_OF_PERICENTER": 317.4297, "MEAN_ANOMALY": 146.417, "EPHEMERIS_TYPE": 0, "CLASSIFICATION_TYPE": "U", "NORAD_CAT_ID": 41945, "ELEMENT_SET_NO": 999, "REV_AT_EPOCH": 3244, "BSTAR": 0, "MEAN_MOTION_DOT": -2.46e-06, "MEAN_MOTION_DDOT": 0}, "tle": {"line1": "1 41945U 17007B   25355.35322411 -.00000246  00000+0  00000+0 0  9990", "line2": "2 41945   0.0278  70.3074 0000795 317.4297 146.4170  1.00267685 32448"}}, "geometry": {"type": "Point", "coordinates": [-28.85765355681932, -0.0369641548038059]}}, {"type": "Feature", "properties": {"norad_id": 42818, "name": "INTELSAT 35E (IS-35E)", "group": "intelsat", "lat": -0.025936212009900556, "lon": -20.134759276681375, "alt_km": 35783.35852718825, "timestamp": "2025-12-21T18:54:58.161251+00:00", "meta": {"OBJECT_NAME": "INTELSAT 35E (IS-35E)", "OBJECT_ID": "2017-041A", "EPOCH": "2025-12-21T02:45:46.617696", "MEAN_MOTION": 1.00270832, "ECCENTRICITY": 0.0001858, "INCLINATION": 0.017, "RA_OF_ASC_NODE": 28.2756, "ARG_OF_PERICENTER": 244.397, "MEAN_ANOMALY": 184.2219, "EPHEMERIS_TYPE": 0, "CLASSIFICATION_TYPE": "U", "NORAD_CAT_ID": 42818, "ELEMENT_SET_NO": 999, "REV_AT_EPOCH": 3103, "BSTAR": 0, "MEAN_MOTION_DOT": -2.15e-06, "MEAN_MOTION_DDOT": 0}, "tle": {"line1": "1 42818U 17041A   25355.11512289 -.00000215  00000+0  00000+0 0  9992", "line2": "2 42818   0.0170  28.2756 0001858 244.3970 184.2219  1.00270832 31031"}}, "geometry": {"type": "Point", "coordinates": [-20.134759276681375, -0.025936212009900556]}}, {"type": "Feature", "properties": {"norad_id": 42950, "name": "INTELSAT 37E (IS-37E)", "group": "intelsat", "lat": -0.013397961009813298, "lon": -3.6281601329729134, "alt_km": 35786.67851128682, "timestamp": "2025-12-21T18:54:58.161262+00:00", "meta": {"OBJECT_NAME": "INTELSAT 37E (IS-37E)", "OBJECT_ID": "2017-059A", "EPOCH": "2025-12-21T07:58:36.876864", "MEAN_MOTION": 1.00273331, "ECCENTRICITY": 0.00028416, "INCLINATION": 0.0189, "RA_OF_ASC_NODE": 20.7753, "ARG_OF_PERICENTER": 240.6513, "MEAN_ANOMALY": 290.3802, "EPHEMERIS_TYPE": 0, "CLASSIFICATION_TYPE": "U", "NORAD_CAT_ID": 42950, "ELEMENT_SET_NO": 999, "REV_AT_EPOCH": 3028, "BSTAR": 0, "MEAN_MOTION_DOT": -1.18e-06, "MEAN_MOTION_DDOT": 0}, "tle": {"line1": "1 42950U 17059A   25355.33237126 -.00000118  00000+0  00000+0 0  9998", "line2": "2 42950   0.0189  20.7753 0002841 240.6513 290.3802  1.00273331 30287"}}, "geometry": {"type": "Point", "coordinates": [-3.6281601329729134, -0.013397961009813298]}}, {"type": "Feature", "properties": {"norad_id": 43632, "name": "AZERSPACE 2 (IS-38)", "group": "intelsat", "lat": 0.04072668565971759, "lon": 59.458003470943936, "alt_km": 35790.89393384457, "timestamp": "2025-12-21T18:54:58.161273+00:00", "meta": {"OBJECT_NAME": "AZERSPACE 2 (IS-38)", "OBJECT_ID": "2018-074A", "EPOCH": "2025-12-21T11:42:03.852576", "MEAN_MOTION": 1.00269923, "ECCENTRICITY": 0.00011448, "INCLINATION": 0.0185, "RA_OF_ASC_NODE": 341.5133, "ARG_OF_PERICENTER": 284.6301, "MEAN_ANOMALY": 44.7962, "EPHEMERIS_TYPE": 0, "CLASSIFICATION_TYPE": "U", "NORAD_CAT_ID": 43632, "ELEMENT_SET_NO": 999, "REV_AT_EPOCH": 2666, "BSTAR": 0, "MEAN_MOTION_DOT": 1.59e-06, "MEAN_MOTION_DDOT": 0}, "tle": {"line1": "1 43632U 18074A   25355.48754459  .00000159  00000+0  00000+0 0  9997", "line2": "2 43632   0.0185 341.5133 0001144 284.6301  44.7962  1.00269923 26662"}}, "geometry": {"type": "Point", "coordinates": [59.458003470943936, 0.04072668565971759]}}, {"type": "Feature", "properties": {"norad_id": 43633, "name": "HORIZONS-3E", "group": "intelsat", "lat": -0.0022577590447444007, "lon": -176.69250676197265, "alt_km": 35787.78529894546, "timestamp": "2025-12-21T18:54:58.161284+00:00", "meta": {"OBJECT_NAME": "HORIZONS-3E", "OBJECT_ID": "2018-074B", "EPOCH": "2025-12-20T20:52:53.061312", "MEAN_MOTION": 1.00270825, "ECCENTRICITY": 6.664e-05, "INCLINATION": 0.0092, "RA_OF_ASC_NODE": 228.8409, "ARG_OF_PERICENTER": 76.0136, "MEAN_ANOMALY": 267.0442, "EPHEMERIS_TYPE": 0, "CLASSIFICATION_TYPE": "U", "NORAD_CAT_ID": 43633, "ELEMENT_SET_NO": 999, "REV_AT_EPOCH": 2655, "BSTAR": 0, "MEAN_MOTION_DOT": 0, "MEAN_MOTION_DDOT": 0}, "tle": {"line1": "1 43633U 18074B   25354.87005858  .00000000  00000+0  00000+0 0  9997", "line2": "2 43633   0.0092 228.8409 0000666  76.0136 267.0442  1.00270825 26554"}}, "geometry": {"type": "Point", "coordinates": [-176.69250676197265, -0.0022577590447444007]}}, {"type": "Feature", "properties": {"norad_id": 44333, "name": "AT&T T-16", "group": "intelsat", "lat": -0.031133981415900534, "lon": -86.53987345015962, "alt_km": 35791.93820885464, "timestamp": "2025-12-21T18:54:58.161296+00:00", "meta": {"OBJECT_NAME": "AT&T T-16", "OBJECT_ID": "2019-034A", "EPOCH": "2025-12-20T14:27:46.526976", "MEAN_MOTION": 1.00263761, "ECCENTRICITY": 0.0001552, "INCLINATION": 0.019, "RA_OF_ASC_NODE": 58.344, "ARG_OF_PERICENTER": 92.0528, "MEAN_ANOMALY": 55.1236, "EPHEMERIS_TYPE": 0, "CLASSIFICATION_TYPE": "U", "NORAD_CAT_ID": 44333, "ELEMENT_SET_NO": 999, "REV_AT_EPOCH": 2384, "BSTAR": 0, "MEAN_MOTION_DOT": -9.1e-07, "MEAN_MOTION_DDOT": 0}, "tle": {"line1": "1 44333U 19034A   25354.60262184 -.00000091  00000+0  00000+0 0  9991", "line2": "2 44333   0.0190  58.3440 0001552  92.0528  55.1236  1.00263761 23847"}}, "geometry": {"type": "Point", "coordinates": [-86.53987345015962, -0.031133981415900534]}}]}